BEIDOU-3 IGSO-3 (C40)   
1 44709U 19073A   25102.90125676 -.00000182  00000+0  00000+0 0  9990
2 44709  55.5387 285.5303 0043054 181.6166 178.3050  1.00265230 20140
BEIDOU-3 M22 (C44)      
1 44793U 19078A   25102.98450555 -.00000068  00000+0  00000+0 0  9996
2 44793  54.3211 314.9193 0007109  34.5495 325.5273  1.86232257 36633
BEIDOU-3 M21 (C43)      
1 44794U 19078B   25103.65343758 -.00000067  00000+0  00000+0 0  9997
2 44794  54.2939 314.8657 0005096  31.5230 328.5364  1.86227920 36658
BEIDOU-3 M19 (C41)      
1 44864U 19090A   25102.53156911 -.00000016  00000+0  00000+0 0  9992
2 44864  56.1813  77.0670 0020006 288.8467 232.3370  1.86231780 36218
BEIDOU-3 G2 (C60)       
1 45344U 20017A   25103.90775020 -.00000133  00000+0  00000+0 0  9997
2 45344   2.7638  39.0019 0003008 337.6183 232.5340  1.00271683 18963
BEIDOU-3 G3 (C61)       
1 45807U 20040A   25103.91407660 -.00000345  00000+0  00000+0 0  9995
2 45807   1.4112  62.3451 0003119 329.8055 249.7056  1.00266922 17764
BEIDOU-3 G4 (C62)       
1 56564U 23066A   25103.84072622 -.00000106  00000+0  00000+0 0  9991
2 56564   1.3804 291.0577 0002745 200.7899 173.0130  1.00273903  7094
BEIDOU-3 M28 (C50)      
1 58654U 23207A   25102.12287248 -.00000017  00000+0  00000+0 0  9993
2 58654  55.3685  76.8891 0004865 304.1194  55.8125  1.86232155  8812
BEIDOU-3 M25 (C47)      
1 61186U 24168B   25103.82748348 -.00000068  00000+0  00000+0 0  9991
2 61186  54.8480 317.1195 0003830 310.1566   5.0039  1.86230394  3787
BEIDOU-3 M27 (C49)      
1 61187U 24168C   25103.42149597 -.00000068  00000+0  00000+0 0  9999
2 61187  54.8436 317.1180 0002682  22.6001 155.2343  1.86230530  1254
