[
    {
        "OBJECT_NAME": "BEIDOU-3 IGSO-3",
        "OBJECT_ID": "2019-073A",
        "EPOCH": "2025-04-12T21:37:48.584064",
        "MEAN_MOTION": 1.0026523,
        "ECCENTRICITY": 0.0043054,
        "INCLINATION": 55.5387,
        "RA_OF_ASC_NODE": 285.5303,
        "ARG_OF_PERICENTER": 181.6166,
        "MEAN_ANOMALY": 178.305,
        "EPHEMERIS_TYPE": 0,
        "CLASSIFICATION_TYPE": "U",
        "NORAD_CAT_ID": 44709,
        "ELEMENT_SET_NO": 999,
        "REV_AT_EPOCH": 2014,
        "BSTAR": 0,
        "MEAN_MOTION_DOT": -1.82e-06,
        "MEAN_MOTION_DDOT": 0
    },
    {
        "OBJECT_NAME": "BEIDOU-3 M22",
        "OBJECT_ID": "2019-078A",
        "EPOCH": "2025-04-12T23:37:41.279520",
        "MEAN_MOTION": 1.86232257,
        "ECCENTRICITY": 0.0007109,
        "INCLINATION": 54.3211,
        "RA_OF_ASC_NODE": 314.9193,
        "ARG_OF_PERICENTER": 34.5495,
        "MEAN_ANOMALY": 325.5273,
        "EPHEMERIS_TYPE": 0,
        "CLASSIFICATION_TYPE": "U",
        "NORAD_CAT_ID": 44793,
        "ELEMENT_SET_NO": 999,
        "REV_AT_EPOCH": 3663,
        "BSTAR": 0,
        "MEAN_MOTION_DOT": -6.8e-07,
        "MEAN_MOTION_DDOT": 0
    },
    {
        "OBJECT_NAME": "BEIDOU-3 M21",
        "OBJECT_ID": "2019-078B",
        "EPOCH": "2025-04-13T15:40:57.006912",
        "MEAN_MOTION": 1.8622792,
        "ECCENTRICITY": 0.0005096,
        "INCLINATION": 54.2939,
        "RA_OF_ASC_NODE": 314.8657,
        "ARG_OF_PERICENTER": 31.523,
        "MEAN_ANOMALY": 328.5364,
        "EPHEMERIS_TYPE": 0,
        "CLASSIFICATION_TYPE": "U",
        "NORAD_CAT_ID": 44794,
        "ELEMENT_SET_NO": 999,
        "REV_AT_EPOCH": 3665,
        "BSTAR": 0,
        "MEAN_MOTION_DOT": -6.7e-07,
        "MEAN_MOTION_DDOT": 0
    },
    {
        "OBJECT_NAME": "BEIDOU-3 M19",
        "OBJECT_ID": "2019-090A",
        "EPOCH": "2025-04-12T12:45:27.571104",
        "MEAN_MOTION": 1.8623178,
        "ECCENTRICITY": 0.0020006,
        "INCLINATION": 56.1813,
        "RA_OF_ASC_NODE": 77.067,
        "ARG_OF_PERICENTER": 288.8467,
        "MEAN_ANOMALY": 232.337,
        "EPHEMERIS_TYPE": 0,
        "CLASSIFICATION_TYPE": "U",
        "NORAD_CAT_ID": 44864,
        "ELEMENT_SET_NO": 999,
        "REV_AT_EPOCH": 3621,
        "BSTAR": 0,
        "MEAN_MOTION_DOT": -1.6e-07,
        "MEAN_MOTION_DDOT": 0
    },
    {
        "OBJECT_NAME": "BEIDOU-3 G2",
        "OBJECT_ID": "2020-017A",
        "EPOCH": "2025-04-13T21:47:09.617280",
        "MEAN_MOTION": 1.00271683,
        "ECCENTRICITY": 0.0003008,
        "INCLINATION": 2.7638,
        "RA_OF_ASC_NODE": 39.0019,
        "ARG_OF_PERICENTER": 337.6183,
        "MEAN_ANOMALY": 232.534,
        "EPHEMERIS_TYPE": 0,
        "CLASSIFICATION_TYPE": "U",
        "NORAD_CAT_ID": 45344,
        "ELEMENT_SET_NO": 999,
        "REV_AT_EPOCH": 1896,
        "BSTAR": 0,
        "MEAN_MOTION_DOT": -1.33e-06,
        "MEAN_MOTION_DDOT": 0
    },
    {
        "OBJECT_NAME": "BEIDOU-3 G3",
        "OBJECT_ID": "2020-040A",
        "EPOCH": "2025-04-13T21:56:16.218240",
        "MEAN_MOTION": 1.00266922,
        "ECCENTRICITY": 0.0003119,
        "INCLINATION": 1.4112,
        "RA_OF_ASC_NODE": 62.3451,
        "ARG_OF_PERICENTER": 329.8055,
        "MEAN_ANOMALY": 249.7056,
        "EPHEMERIS_TYPE": 0,
        "CLASSIFICATION_TYPE": "U",
        "NORAD_CAT_ID": 45807,
        "ELEMENT_SET_NO": 999,
        "REV_AT_EPOCH": 1776,
        "BSTAR": 0,
        "MEAN_MOTION_DOT": -3.45e-06,
        "MEAN_MOTION_DDOT": 0
    },
    {
        "OBJECT_NAME": "BEIDOU-3 G4",
        "OBJECT_ID": "2023-066A",
        "EPOCH": "2025-04-13T20:10:38.745408",
        "MEAN_MOTION": 1.00273903,
        "ECCENTRICITY": 0.0002745,
        "INCLINATION": 1.3804,
        "RA_OF_ASC_NODE": 291.0577,
        "ARG_OF_PERICENTER": 200.7899,
        "MEAN_ANOMALY": 173.013,
        "EPHEMERIS_TYPE": 0,
        "CLASSIFICATION_TYPE": "U",
        "NORAD_CAT_ID": 56564,
        "ELEMENT_SET_NO": 999,
        "REV_AT_EPOCH": 709,
        "BSTAR": 0,
        "MEAN_MOTION_DOT": -1.06e-06,
        "MEAN_MOTION_DDOT": 0
    },
    {
        "OBJECT_NAME": "BEIDOU-3 M28",
        "OBJECT_ID": "2023-207A",
        "EPOCH": "2025-04-12T02:56:56.182272",
        "MEAN_MOTION": 1.86232155,
        "ECCENTRICITY": 0.0004865,
        "INCLINATION": 55.3685,
        "RA_OF_ASC_NODE": 76.8891,
        "ARG_OF_PERICENTER": 304.1194,
        "MEAN_ANOMALY": 55.8125,
        "EPHEMERIS_TYPE": 0,
        "CLASSIFICATION_TYPE": "U",
        "NORAD_CAT_ID": 58654,
        "ELEMENT_SET_NO": 999,
        "REV_AT_EPOCH": 881,
        "BSTAR": 0,
        "MEAN_MOTION_DOT": -1.7e-07,
        "MEAN_MOTION_DDOT": 0
    },
    {
        "OBJECT_NAME": "BEIDOU-3 M25",
        "OBJECT_ID": "2024-168B",
        "EPOCH": "2025-04-13T19:51:34.572672",
        "MEAN_MOTION": 1.86230394,
        "ECCENTRICITY": 0.000383,
        "INCLINATION": 54.848,
        "RA_OF_ASC_NODE": 317.1195,
        "ARG_OF_PERICENTER": 310.1566,
        "MEAN_ANOMALY": 5.0039,
        "EPHEMERIS_TYPE": 0,
        "CLASSIFICATION_TYPE": "U",
        "NORAD_CAT_ID": 61186,
        "ELEMENT_SET_NO": 999,
        "REV_AT_EPOCH": 378,
        "BSTAR": 0,
        "MEAN_MOTION_DOT": -6.8e-07,
        "MEAN_MOTION_DDOT": 0
    },
    {
        "OBJECT_NAME": "BEIDOU-3 M27",
        "OBJECT_ID": "2024-168C",
        "EPOCH": "2025-04-13T10:06:57.251808",
        "MEAN_MOTION": 1.8623053,
        "ECCENTRICITY": 0.0002682,
        "INCLINATION": 54.8436,
        "RA_OF_ASC_NODE": 317.118,
        "ARG_OF_PERICENTER": 22.6001,
        "MEAN_ANOMALY": 155.2343,
        "EPHEMERIS_TYPE": 0,
        "CLASSIFICATION_TYPE": "U",
        "NORAD_CAT_ID": 61187,
        "ELEMENT_SET_NO": 999,
        "REV_AT_EPOCH": 125,
        "BSTAR": 0,
        "MEAN_MOTION_DOT": -6.8e-07,
        "MEAN_MOTION_DDOT": 0
    }
]